TOMORROW-S1             
1 60479U 24149M   26068.72470524  .00008620  00000+0  28856-3 0  9996
2 60479  97.3791 149.6044 0001819 207.2040 152.9106 15.31198362 86867
STARLINK-35316          
1 65742U 25216J   26068.88743794  .00028387  00000+0  96658-3 0  9996
2 65742  53.1590 331.9965 0000814  45.0164 315.0902 15.30210448 25496
